#cP2022 12  3  0  0  0.00000000      96 ORBIT IGS20 HLM  IGS
## 2238 518400.00000000   900.00000000 59916 0.0000000000000
+   31   G01G02G03G04G05G06G07G08G09G10G11G12G13G14G15G16G17
+        G18G19G20G21G22G23G24G25G26G27G29G30G31G32  0  0  0
+          0  0  0  0  0  0  0  0  0  0  0  0  0  0  0  0  0
+          0  0  0  0  0  0  0  0  0  0  0  0  0  0  0  0  0
+          0  0  0  0  0  0  0  0  0  0  0  0  0  0  0  0  0
++         2  2  2  2  2  2  2  2  2  2  3  3  2  3  2  2  2
++         2  2  2  2  2  3  2  2  2  2  2  2  2  2  0  0  0
++         0  0  0  0  0  0  0  0  0  0  0  0  0  0  0  0  0
++         0  0  0  0  0  0  0  0  0  0  0  0  0  0  0  0  0
++         0  0  0  0  0  0  0  0  0  0  0  0  0  0  0  0  0
%c G  cc GPS ccc cccc cccc cccc cccc ccccc ccccc ccccc ccccc
%c cc cc ccc ccc cccc cccc cccc cccc ccccc ccccc ccccc ccccc
%f  1.2500000  1.025000000  0.00000000000  0.000000000000000
%f  0.0000000  0.000000000  0.00000000000  0.000000000000000
%i    0    0    0    0      0      0      0      0         0
%i    0    0    0    0      0      0      0      0         0
/* RAPID ORBIT COMBINATION FROM WEIGHTED AVERAGE OF:        
/* cod emr esa gfz ngs sio usn whu                          
/* REFERENCED TO IGS TIME (IGST) AND TO WEIGHTED MEAN POLE: 
/* PCV:IGS20_2233 OL/AL:FES2004  NONE     Y  ORB:CMB CLK:CMB
*  2022 12  3  3 45  0.00000000
PG01  14773.823432   -445.535346  21787.160863    243.080414  6  4  4  97       
PG02 -13898.038818   5057.217017 -21430.430767   -634.978438  6  5  5 110       
PG03  20894.196067  -8903.615097  13560.044138   -374.943307  4     6  82       
PG04  24690.797551   -508.474709  -9916.171192    -75.638653  6  6  3  74       
PG05 -15973.995824  -3842.000670 -21063.257705   -106.603806  7  3  6 107       
PG06  -5657.021267 -25757.018648   2837.789393    532.057707  5  6  8  70       
PG07   8848.872247 -16293.561055 -18405.886825    279.693218  5  7  3 100       
PG08  26015.280344   6202.317555  -1124.215031    -96.765180  6  5  6  94       
PG09  17039.376360  -9511.702695 -18119.601486   -259.501617  7  7  3 111       
PG10  -8083.811670  21602.536077  13042.600769    -14.437837  6  7  5  68       
PG11 -12063.533534 -21742.926007  -9381.331486    -49.895632  6  4  4  93       
PG12 -21371.709319   6769.211131  13891.673205   -311.386591  7  7  8 107       
PG13 -21919.979672 -13546.431357  -7007.894072    435.284259  6  3  8  98       
PG14  10686.034710 -21659.108118  10924.045937    -74.275885  8  9  8 113       
PG15 -26456.899199  -3562.858913  -1420.834997     -7.337794  7  7  4  80       
PG16  12363.523382   9231.700796 -21938.913933   -526.585961  6  2     78       
PG17   3686.506136 -14632.467972  22299.089673    682.850528  5  6  5  89       
PG18  -7280.013028  18407.554411 -17637.747895    -44.493935  8 10  7 111       
PG19  -9127.793885 -16512.477397  18571.318628    245.407947     8  6  84       
PG20  -7287.013254 -15485.079322 -20344.578601    466.097251  5  5  5 100       
PG21  17584.317995   8290.082135  19029.374149    154.731630  5  8    105       
PG22  11792.185203  16648.329993  17525.329937    376.871798  4  4  6  85       
PG23 -16106.315354  20865.499873   2564.415883     -0.474130  9 10  3  74       
PG24 -17101.941558  -3359.951678  19808.036401     32.970298  4  8  7 109       
PG25 -20104.566524  16100.173449   5542.369474    398.425716  4  6  4 107       
PG26   3387.689570  18060.531431 -19159.745469    237.465634  5  3  5 109       
PG27  20448.788273  12913.466203 -11653.804554    163.287289  5  3  3  98       
PG29 -19267.312217   6144.066921 -17301.149890   -571.389023  8  7  3 128       
PG30    635.267668 -24409.006782 -10043.459606   -535.989537  3     2  92       
PG31   6426.221513  25486.746671    910.147014   -202.081940  6  8  4 100       
PG32    614.737275  15683.238952  21599.512177   -316.480807  5  5  3  88       
*  2022 12  3  4  0  0.00000000
PG01  15521.618148   1956.278030  21214.264055    243.075521  6  4  4  95       
PG02 -14888.461873   2680.744527 -21181.838199   -634.976763  5  3  4 104       
PG03  19901.011253  -7520.122554  15711.726922   -374.944016  4     6  91       
PG04  25595.672912    -65.011784  -7297.569794    -75.632411  6  7  3 100       
PG05 -14504.879939  -5748.900652 -21677.618259   -106.604977  7     5  93       
PG06  -5336.849257 -25356.997944   5697.767974    532.065158  5  6  8  82       
PG07   9723.912748 -14183.511694 -19683.864594    279.688753  6  8  2  88       
PG08  25699.123653   6375.272689  -3939.155078    -96.765894  6  6  6  77       
PG09  18942.324575  -9011.923891 -16400.394614   -259.496274  7  7  4 125       
PG10  -9109.902392  22483.046331  10593.428622    -14.438796  6  7  5  99       
PG11 -12096.556918 -22690.626380  -6723.010416    -49.901854  6  6  3  55       
PG12 -20255.095500   5402.994873  15976.196420   -311.390206  6  8  7 110       
PG13 -20979.906377 -13431.677943  -9654.039194    435.290807  7  4  8  98       
PG14  11636.085990 -22287.826078   8382.405036    -74.270575  8  8  6 105       
PG15 -26167.089817  -3857.931812  -4176.117316     -7.334558  6  7  4  83       
PG16  10584.255702  10919.338820 -22054.939932   -526.585939  6        77       
PG17   6049.479457 -14004.176047  22191.129463    682.853491  6  6  5  90       
PG18  -8040.144062  16435.523728 -19199.259531    -44.506882  8 10  7 115       
PG19  -6965.869511 -15935.219317  19922.469638    245.412470  2  8  6  81       
PG20  -5998.680270 -17354.682803 -19247.442294    466.094888  5  4  4  99       
PG21  18280.864309  10116.080494  17435.155260    154.730470  5  8  1 110       
PG22   9824.122553  16210.300981  19101.319284    376.878610  4  4  6  76       
PG23 -16370.023259  20815.320393   -317.396943     -0.473672  9 10  3  90       
PG24 -17892.502106  -5485.521363  18658.757844     32.955137  3  7  7 110       
PG25 -19777.352318  15284.769951   8252.406451    398.428921  3  6  4 123       
PG26   1955.916248  19622.476756 -17734.262635    237.466515  5  5  5 106       
PG27  19026.423688  12792.852191 -13970.974418    163.278377  6  3  3  93       
PG29 -21019.370752   5518.736212 -15365.750383   -571.391365  8  7  4 122       
PG30   1323.704940 -23253.856176 -12436.656384   -535.989063  4  2  4 110       
PG31   6045.480084  25303.762512   3763.996726   -202.083121  7  8  4  79       
PG32  -1796.786031  15239.121471  21834.047501   -316.492463  6  5  3 105       
*  2022 12  3  4 15  0.00000000
PG01  16369.741583   4227.176985  20267.928792    243.070608  5  5  5  87       
PG02 -15976.332484    403.343400 -20546.088740   -634.975122  5  4  4 102       
PG03  18843.360311  -5902.962922  17589.556487   -374.944746  3     6  81       
PG04  26224.064152    278.516643  -4554.147821    -75.626147  6  7  3  81       
PG05 -13110.670980  -7771.316601 -21925.153211   -106.606269  6     5  81       
PG06  -4876.515234 -24678.987747   8459.371098    532.072607  5  5  8  84       
PG07  10747.033403 -12002.848838 -20606.500377    279.684523  6  8  1  92       
PG08  25082.459831   6529.652866  -6687.868963    -96.769067  5  6  7  81       
PG09  20660.467045  -8634.796482 -14401.071539   -259.490967  7  7  4 122       
PG10  -9912.315880  23189.102464   7960.108129    -14.439509  6  8  6  92       
PG11 -12078.860889 -23344.710751  -3949.206628    -49.908108  6  8  3  74       
PG12 -19062.809957   3813.030021  17779.391755   -311.394424  6  8  7 107       
PG13 -19757.959198 -13289.386961 -12136.928860    435.296723  7  5  7 102       
PG14  12363.594191 -22736.134533   5695.564980    -74.265252  7  8  5  97       
PG15 -25589.148504  -4161.782308  -6861.289563     -7.331909  6  7  5  44       
PG16   8900.670518  12698.186304 -21801.113930   -526.585671  6     2  69       
PG17   8411.904189 -13515.196969  21716.760978    682.855954  5  6  5  85       
PG18  -8961.738496  14360.317376 -20428.950832    -44.519820  8  9  7 114       
PG19  -4642.090902 -15443.215350  20926.326173    245.416905  1  8  6  85       
PG20  -4874.792790 -19159.884548 -17820.625958    466.092546  5  5  4  87       
PG21  18989.307146  11731.174423  15561.902538    154.729681  5  8  2 100       
PG22   7682.663471  15843.547261  20361.238618    376.885805  4  4  6  83       
PG23 -16442.626912  20514.952158  -3193.700458     -0.473241  8 11  5  95       
PG24 -18714.778788  -7432.794137  17183.512640     32.939999  3  8  7 105       
PG25 -19309.189059  14212.289105  10816.517156    398.432120  2  6  5 114       
PG26    698.889704  21105.971493 -16002.270766    237.467446  5  6  5 114       
PG27  17355.602773  12717.155574 -16055.354023    163.269458  6  4  4 106       
PG29 -22574.491355   5040.006382 -13167.553339   -571.393865  7  6  5 121       
PG30   2160.105664 -21891.131150 -14612.005201   -535.988613  3  2  4 100       
PG31   5540.665361  24838.072064   6551.013770   -202.084010  6  8  1 100       
PG32  -4235.634076  14920.528034  21698.200171   -316.504111  6  5  3 106       
EOF
